{
  "type": "FeatureCollection",
  "features": [
    {
      "type": "Feature",
      "properties": {
        "norad_id": 37912,
        "name": "FENGYUN 1C DEB",
        "group": "fengyun-1c-debris",
        "lat": -3.571618105643958,
        "lon": 128.34174156601068,
        "alt_km": 875.9910069009857,
        "timestamp": "2025-12-06T11:28:11.351899+00:00",
        "meta_object_name": "FENGYUN 1C DEB",
        "meta_object_id": "1999-025ENM",
        "meta_epoch": "2025-12-05T09:05:31.753536",
        "meta_mean_motion": 14.11390827,
        "meta_eccentricity": 0.00916764,
        "meta_inclination": 99.2298,
        "meta_ra_of_asc_node": 307.7936,
        "meta_arg_of_pericenter": 80.2339,
        "meta_mean_anomaly": 280.9169,
        "meta_ephemeris_type": 0,
        "meta_classification_type": "U",
        "meta_norad_cat_id": 37912,
        "meta_element_set_no": 999,
        "meta_rev_at_epoch": 77184,
        "meta_bstar": 0.0041193188,
        "meta_mean_motion_dot": 7.717e-05,
        "meta_mean_motion_ddot": 0,
        "tle_line1": "1 37912U 99025ENM 25339.37883974  .00007717  00000+0  41193-2 0  9999",
        "tle_line2": "2 37912  99.2298 307.7936 0091676  80.2339 280.9169 14.11390827771840"
      },
      "geometry": {
        "type": "Point",
        "coordinates": [
          128.34174156601068,
          -3.571618105643958
        ]
      }
    },
    {
      "type": "Feature",
      "properties": {
        "norad_id": 37918,
        "name": "FENGYUN 1C DEB",
        "group": "fengyun-1c-debris",
        "lat": 64.42467543353963,
        "lon": -89.73657397850111,
        "alt_km": 793.1013293304222,
        "timestamp": "2025-12-06T11:28:11.351908+00:00",
        "meta_object_name": "FENGYUN 1C DEB",
        "meta_object_id": "1999-025ENT",
        "meta_epoch": "2025-12-03T07:49:27.657120",
        "meta_mean_motion": 14.34315896,
        "meta_eccentricity": 0.0055752,
        "meta_inclination": 99.0257,
        "meta_ra_of_asc_node": 286.3711,
        "meta_arg_of_pericenter": 311.2098,
        "meta_mean_anomaly": 48.4287,
        "meta_ephemeris_type": 0,
        "meta_classification_type": "U",
        "meta_norad_cat_id": 37918,
        "meta_element_set_no": 999,
        "meta_rev_at_epoch": 3407,
        "meta_bstar": 0.0012431,
        "meta_mean_motion_dot": 3.507e-05,
        "meta_mean_motion_ddot": 0,
        "tle_line1": "1 37918U 99025ENT 25337.32601455  .00003507  00000+0  12431-2 0  9996",
        "tle_line2": "2 37918  99.0257 286.3711 0055752 311.2098  48.4287 14.34315896 34079"
      },
      "geometry": {
        "type": "Point",
        "coordinates": [
          -89.73657397850111,
          64.42467543353963
        ]
      }
    },
    {
      "type": "Feature",
      "properties": {
        "norad_id": 37919,
        "name": "FENGYUN 1C DEB",
        "group": "fengyun-1c-debris",
        "lat": 49.81685763430685,
        "lon": -92.67553898524149,
        "alt_km": 763.5372354790679,
        "timestamp": "2025-12-06T11:28:11.351919+00:00",
        "meta_object_name": "FENGYUN 1C DEB",
        "meta_object_id": "1999-025ENU",
        "meta_epoch": "2025-12-05T06:37:21.613440",
        "meta_mean_motion": 14.26732064,
        "meta_eccentricity": 0.00501439,
        "meta_inclination": 99.0565,
        "meta_ra_of_asc_node": 276.9671,
        "meta_arg_of_pericenter": 37.6316,
        "meta_mean_anomaly": 322.8355,
        "meta_ephemeris_type": 0,
        "meta_classification_type": "U",
        "meta_norad_cat_id": 37919,
        "meta_element_set_no": 999,
        "meta_rev_at_epoch": 64802,
        "meta_bstar": 0.00094687739,
        "meta_mean_motion_dot": 2.276e-05,
        "meta_mean_motion_ddot": 0,
        "tle_line1": "1 37919U 99025ENU 25339.27594460  .00002276  00000+0  94688-3 0  9997",
        "tle_line2": "2 37919  99.0565 276.9671 0050143  37.6316 322.8355 14.26732064648025"
      },
      "geometry": {
        "type": "Point",
        "coordinates": [
          -92.67553898524149,
          49.81685763430685
        ]
      }
    },
    {
      "type": "Feature",
      "properties": {
        "norad_id": 37921,
        "name": "FENGYUN 1C DEB",
        "group": "fengyun-1c-debris",
        "lat": -24.870211119581064,
        "lon": 25.91634336790735,
        "alt_km": 963.5173776538659,
        "timestamp": "2025-12-06T11:28:11.351929+00:00",
        "meta_object_name": "FENGYUN 1C DEB",
        "meta_object_id": "1999-025ENW",
        "meta_epoch": "2025-12-04T09:40:37.327584",
        "meta_mean_motion": 13.95147982,
        "meta_eccentricity": 0.0084396,
        "meta_inclination": 99.0234,
        "meta_ra_of_asc_node": 19.6626,
        "meta_arg_of_pericenter": 121.28,
        "meta_mean_anomaly": 239.6661,
        "meta_ephemeris_type": 0,
        "meta_classification_type": "U",
        "meta_norad_cat_id": 37921,
        "meta_element_set_no": 999,
        "meta_rev_at_epoch": 63031,
        "meta_bstar": 0.00052305,
        "meta_mean_motion_dot": 6.84e-06,
        "meta_mean_motion_ddot": 0,
        "tle_line1": "1 37921U 99025ENW 25338.40320981  .00000684  00000+0  52305-3 0  9990",
        "tle_line2": "2 37921  99.0234  19.6626 0084396 121.2800 239.6661 13.95147982630310"
      },
      "geometry": {
        "type": "Point",
        "coordinates": [
          25.91634336790735,
          -24.870211119581064
        ]
      }
    },
    {
      "type": "Feature",
      "properties": {
        "norad_id": 37925,
        "name": "FENGYUN 1C DEB",
        "group": "fengyun-1c-debris",
        "lat": -5.566601061626554,
        "lon": -150.2963904659371,
        "alt_km": 592.9744503531801,
        "timestamp": "2025-12-06T11:28:11.351939+00:00",
        "meta_object_name": "FENGYUN 1C DEB",
        "meta_object_id": "1999-025EPA",
        "meta_epoch": "2025-12-03T08:51:08.944992",
        "meta_mean_motion": 14.79858027,
        "meta_eccentricity": 0.0057842,
        "meta_inclination": 99.0872,
        "meta_ra_of_asc_node": 205.2959,
        "meta_arg_of_pericenter": 11.9768,
        "meta_mean_anomaly": 348.28,
        "meta_ephemeris_type": 0,
        "meta_classification_type": "U",
        "meta_norad_cat_id": 37925,
        "meta_element_set_no": 999,
        "meta_rev_at_epoch": 65544,
        "meta_bstar": 0.0022468503,
        "meta_mean_motion_dot": 0.00017399,
        "meta_mean_motion_ddot": 0,
        "tle_line1": "1 37925U 99025EPA 25337.36885353  .00017399  00000+0  22469-2 0  9995",
        "tle_line2": "2 37925  99.0872 205.2959 0057842  11.9768 348.2800 14.79858027655443"
      },
      "geometry": {
        "type": "Point",
        "coordinates": [
          -150.2963904659371,
          -5.566601061626554
        ]
      }
    },
    {
      "type": "Feature",
      "properties": {
        "norad_id": 37926,
        "name": "FENGYUN 1C DEB",
        "group": "fengyun-1c-debris",
        "lat": 22.351676290072646,
        "lon": 40.07462574931331,
        "alt_km": 841.9102143722575,
        "timestamp": "2025-12-06T11:28:11.351949+00:00",
        "meta_object_name": "FENGYUN 1C DEB",
        "meta_object_id": "1999-025EPB",
        "meta_epoch": "2025-12-05T22:43:16.176864",
        "meta_mean_motion": 14.24144315,
        "meta_eccentricity": 0.00536457,
        "meta_inclination": 98.7242,
        "meta_ra_of_asc_node": 43.1674,
        "meta_arg_of_pericenter": 240.7841,
        "meta_mean_anomaly": 299.7253,
        "meta_ephemeris_type": 0,
        "meta_classification_type": "U",
        "meta_norad_cat_id": 37926,
        "meta_element_set_no": 999,
        "meta_rev_at_epoch": 74173,
        "meta_bstar": 0.0026442625,
        "meta_mean_motion_dot": 6.139e-05,
        "meta_mean_motion_ddot": 0,
        "tle_line1": "1 37926U 99025EPB 25339.94671501  .00006139  00000+0  26443-2 0  9996",
        "tle_line2": "2 37926  98.7242  43.1674 0053645 240.7841 299.7253 14.24144315741733"
      },
      "geometry": {
        "type": "Point",
        "coordinates": [
          40.07462574931331,
          22.351676290072646
        ]
      }
    },
    {
      "type": "Feature",
      "properties": {
        "norad_id": 37927,
        "name": "FENGYUN 1C DEB",
        "group": "fengyun-1c-debris",
        "lat": 4.274506025701667,
        "lon": 122.9861133040346,
        "alt_km": 658.1183941816171,
        "timestamp": "2025-12-06T11:28:11.351959+00:00",
        "meta_object_name": "FENGYUN 1C DEB",
        "meta_object_id": "1999-025EPC",
        "meta_epoch": "2025-12-05T15:51:47.733696",
        "meta_mean_motion": 14.71193467,
        "meta_eccentricity": 0.00078627,
        "meta_inclination": 98.8089,
        "meta_ra_of_asc_node": 122.7672,
        "meta_arg_of_pericenter": 290.5968,
        "meta_mean_anomaly": 69.4393,
        "meta_ephemeris_type": 0,
        "meta_classification_type": "U",
        "meta_norad_cat_id": 37927,
        "meta_element_set_no": 999,
        "meta_rev_at_epoch": 65012,
        "meta_bstar": 0.0076237018,
        "meta_mean_motion_dot": 0.00047266,
        "meta_mean_motion_ddot": 0,
        "tle_line1": "1 37927U 99025EPC 25339.66096914  .00047266  00000+0  76237-2 0  9997",
        "tle_line2": "2 37927  98.8089 122.7672 0007862 290.5968  69.4393 14.71193467650122"
      },
      "geometry": {
        "type": "Point",
        "coordinates": [
          122.9861133040346,
          4.274506025701667
        ]
      }
    }
  ]
}